{
    "links": {
        "self": "http://www.neowsapp.com/rest/v1/neo/3387547?api_key=iIulBulltgU6a56xZRHN4H3l9WmuAYTsLGpBGhQ2"
    },
    "id": "3387547",
    "neo_reference_id": "3387547",
    "name": "(2007 TK5)",
    "designation": "2007 TK5",
    "nasa_jpl_url": "http://ssd.jpl.nasa.gov/sbdb.cgi?sstr=3387547",
    "absolute_magnitude_h": 23.5,
    "estimated_diameter": {
        "kilometers": {
            "estimated_diameter_min": 0.0530340723,
            "estimated_diameter_max": 0.1185877909
        },
        "meters": {
            "estimated_diameter_min": 53.0340723319,
            "estimated_diameter_max": 118.5877908577
        },
        "miles": {
            "estimated_diameter_min": 0.0329538346,
            "estimated_diameter_max": 0.0736870142
        },
        "feet": {
            "estimated_diameter_min": 173.9963058693,
            "estimated_diameter_max": 389.0675677576
        }
    },
    "is_potentially_hazardous_asteroid": false,
    "close_approach_data": [
        {
            "close_approach_date": "2007-10-19",
            "close_approach_date_full": "2007-Oct-19 21:46",
            "epoch_date_close_approach": 1192830360000,
            "relative_velocity": {
                "kilometers_per_second": "19.142594139",
                "kilometers_per_hour": "68913.3389002621",
                "miles_per_hour": "42820.0688294434"
            },
            "miss_distance": {
                "astronomical": "0.0586728877",
                "lunar": "22.8237533153",
                "kilometers": "8777339.026669199",
                "miles": "5453985.5665009862"
            },
            "orbiting_body": "Earth"
        },
        {
            "close_approach_date": "2008-01-02",
            "close_approach_date_full": "2008-Jan-02 07:32",
            "epoch_date_close_approach": 1199259120000,
            "relative_velocity": {
                "kilometers_per_second": "18.4036972713",
                "kilometers_per_hour": "66253.3101765036",
                "miles_per_hour": "41167.2304260614"
            },
            "miss_distance": {
                "astronomical": "0.0727274686",
                "lunar": "28.2909852854",
                "kilometers": "10879874.393051882",
                "miles": "6760440.4620526916"
            },
            "orbiting_body": "Venus"
        }
    ],
    "orbital_data": {
        "orbit_id": "7",
        "orbit_determination_date": "2017-04-06 09:05:52",
        "first_observation_date": "2007-10-07",
        "last_observation_date": "2007-10-12",
        "data_arc_in_days": 5,
        "observations_used": 46,
        "orbit_uncertainty": "9",
        "minimum_orbit_intersection": ".0538803",
        "jupiter_tisserand_invariant": "4.076",
        "epoch_osculation": "2454383.5",
        "eccentricity": ".6563209014846533",
        "semi_major_axis": "1.606304625651114",
        "inclination": "3.362506720783111",
        "ascending_node_longitude": "317.6546298122503",
        "orbital_period": "743.601559404619",
        "perihelion_distance": ".5520533256848064",
        "perihelion_argument": "164.3619273204213",
        "aphelion_distance": "2.660555925617421",
        "perihelion_time": "2454443.035855649810",
        "mean_anomaly": "331.1768920292578",
        "mean_motion": ".4841302380918108",
        "equinox": "J2000",
        "orbit_class": {
            "orbit_class_type": "APO",
            "orbit_class_description": "Near-Earth asteroid orbits which cross the Earth’s orbit similar to that of 1862 Apollo",
            "orbit_class_range": "a (semi-major axis) > 1.0 AU; q (perihelion) < 1.017 AU"
        }
    },
    "is_sentry_object": false
}